ONEWEB-0327             
1 49196U 21083L   23226.44348132  .00000075  00000+0  15770-3 0  9991
2 49196  87.9287 181.7870 0002105  68.0097 292.1259 13.18681379 94530
ONEWEB-0328             
1 49197U 21083M   23226.07371629  .00000203  00000+0  52228-3 0  9990
2 49197  87.9087 166.7287 0002282  77.6918 282.4466 13.13468512 95910
ONEWEB-0331             
1 49198U 21083N   23225.93026463  .00000069  00000+0  14296-3 0  9991
2 49198  87.9287 181.9328 0002105  75.4219 284.7147 13.18686075 94452
ONEWEB-0333             
1 49199U 21083P   23225.76367920 -.00000352  00000+0 -99923-3 0  9996
2 49199  87.9090 166.7922 0001928  84.5955 275.5394 13.13468418 95880
ONEWEB-0334             
1 49200U 21083Q   23226.24293807 -.00000059  00000+0 -17600-3 0  9991
2 49200  87.9230 121.1502 0001324 105.4703 254.6576 13.20771392101077
ONEWEB-0335             
1 49201U 21083R   23226.14035577  .00000364  00000+0  96121-3 0  9991
2 49201  87.9089 166.7072 0002262  80.2642 279.8742 13.13471697 95940
ONEWEB-0336             
1 49202U 21083S   23225.80392017 -.00000053  00000+0 -18067-3 0  9999
2 49202  87.9087 166.7712 0001980  82.9354 277.2001 13.13470015 95904
ONEWEB-0337             
1 49203U 21083T   23226.36043277 -.00000147  00000+0 -43827-3 0  9999
2 49203  87.9081 166.6671 0002124  78.5524 281.5843 13.13473162 95978
